[{"OBJECT_NAME":"FOSSASAT-2E18 (TAT-A)","OBJECT_ID":"2025-009CF","EPOCH":"2026-03-09T17:01:45.499296","MEAN_MOTION":15.20457243,"ECCENTRICITY":0.00051914,"INCLINATION":97.4018,"RA_OF_ASC_NODE":148.8446,"ARG_OF_PERICENTER":339.5047,"MEAN_ANOMALY":20.598,"EPHEMERIS_TYPE":0,"CLASSIFICATION_TYPE":"U","NORAD_CAT_ID":62686,"ELEMENT_SET_NO":999,"REV_AT_EPOCH":6357,"BSTAR":0.00019425046,"MEAN_MOTION_DOT":4.172e-5,"MEAN_MOTION_DDOT":0},{"OBJECT_NAME":"CZ-4C R\/B","OBJECT_ID":"2015-069B","EPOCH":"2026-03-09T18:13:41.887776","MEAN_MOTION":15.30824061,"ECCENTRICITY":0.00587215,"INCLINATION":97.486,"RA_OF_ASC_NODE":137.7913,"ARG_OF_PERICENTER":156.3643,"MEAN_ANOMALY":204.0316,"EPHEMERIS_TYPE":0,"CLASSIFICATION_TYPE":"U","NORAD_CAT_ID":41039,"ELEMENT_SET_NO":999,"REV_AT_EPOCH":56689,"BSTAR":0.0003480254,"MEAN_MOTION_DOT":0.00010856,"MEAN_MOTION_DDOT":0}]
